<?xml version="1.0" encoding="UTF-8"?>
<ndm xmlns:xsi="http://www.w3.org/2001/XMLSchema-instance" xsi:noNamespaceSchemaLocation="https://sanaregistry.org/r/ndmxml_unqualified/ndmxml-2.0.0-master-2.0.xsd">
<omm id="CCSDS_OMM_VERS" version="2.0">
<header><CREATION_DATE/><ORIGINATOR/></header><body><segment><metadata><OBJECT_NAME>ORBCOMM FM33 [-]</OBJECT_NAME><OBJECT_ID>1999-065D</OBJECT_ID><CENTER_NAME>EARTH</CENTER_NAME><REF_FRAME>TEME</REF_FRAME><TIME_SYSTEM>UTC</TIME_SYSTEM><MEAN_ELEMENT_THEORY>SGP4</MEAN_ELEMENT_THEORY></metadata><data><meanElements><EPOCH>2023-11-04T22:47:49.365888</EPOCH><MEAN_MOTION>14.36933892</MEAN_MOTION><ECCENTRICITY>.0010238</ECCENTRICITY><INCLINATION>45.0291</INCLINATION><RA_OF_ASC_NODE>277.7726</RA_OF_ASC_NODE><ARG_OF_PERICENTER>329.0632</ARG_OF_PERICENTER><MEAN_ANOMALY>128.4303</MEAN_ANOMALY></meanElements><tleParameters><EPHEMERIS_TYPE>0</EPHEMERIS_TYPE><CLASSIFICATION_TYPE>U</CLASSIFICATION_TYPE><NORAD_CAT_ID>25983</NORAD_CAT_ID><ELEMENT_SET_NO>999</ELEMENT_SET_NO><REV_AT_EPOCH>25116</REV_AT_EPOCH><BSTAR>.82807E-3</BSTAR><MEAN_MOTION_DOT>.2334E-4</MEAN_MOTION_DOT><MEAN_MOTION_DDOT>0</MEAN_MOTION_DDOT></tleParameters></data></segment></body></omm>
<omm id="CCSDS_OMM_VERS" version="2.0">
<header><CREATION_DATE/><ORIGINATOR/></header><body><segment><metadata><OBJECT_NAME>ORBCOMM FM36 [-]</OBJECT_NAME><OBJECT_ID>1999-065E</OBJECT_ID><CENTER_NAME>EARTH</CENTER_NAME><REF_FRAME>TEME</REF_FRAME><TIME_SYSTEM>UTC</TIME_SYSTEM><MEAN_ELEMENT_THEORY>SGP4</MEAN_ELEMENT_THEORY></metadata><data><meanElements><EPOCH>2023-11-04T19:57:08.829216</EPOCH><MEAN_MOTION>14.34806603</MEAN_MOTION><ECCENTRICITY>.0005261</ECCENTRICITY><INCLINATION>45.0413</INCLINATION><RA_OF_ASC_NODE>0.6001</RA_OF_ASC_NODE><ARG_OF_PERICENTER>229.5959</ARG_OF_PERICENTER><MEAN_ANOMALY>130.4430</MEAN_ANOMALY></meanElements><tleParameters><EPHEMERIS_TYPE>0</EPHEMERIS_TYPE><CLASSIFICATION_TYPE>U</CLASSIFICATION_TYPE><NORAD_CAT_ID>25984</NORAD_CAT_ID><ELEMENT_SET_NO>999</ELEMENT_SET_NO><REV_AT_EPOCH>24954</REV_AT_EPOCH><BSTAR>.92146E-3</BSTAR><MEAN_MOTION_DOT>.2498E-4</MEAN_MOTION_DOT><MEAN_MOTION_DDOT>0</MEAN_MOTION_DDOT></tleParameters></data></segment></body></omm>
<omm id="CCSDS_OMM_VERS" version="2.0">
<header><CREATION_DATE/><ORIGINATOR/></header><body><segment><metadata><OBJECT_NAME>ORBCOMM FM35 [+]</OBJECT_NAME><OBJECT_ID>1999-065F</OBJECT_ID><CENTER_NAME>EARTH</CENTER_NAME><REF_FRAME>TEME</REF_FRAME><TIME_SYSTEM>UTC</TIME_SYSTEM><MEAN_ELEMENT_THEORY>SGP4</MEAN_ELEMENT_THEORY></metadata><data><meanElements><EPOCH>2023-11-04T21:30:14.977152</EPOCH><MEAN_MOTION>14.34490975</MEAN_MOTION><ECCENTRICITY>.0003992</ECCENTRICITY><INCLINATION>45.0419</INCLINATION><RA_OF_ASC_NODE>2.4287</RA_OF_ASC_NODE><ARG_OF_PERICENTER>297.5368</ARG_OF_PERICENTER><MEAN_ANOMALY>62.5073</MEAN_ANOMALY></meanElements><tleParameters><EPHEMERIS_TYPE>0</EPHEMERIS_TYPE><CLASSIFICATION_TYPE>U</CLASSIFICATION_TYPE><NORAD_CAT_ID>25985</NORAD_CAT_ID><ELEMENT_SET_NO>999</ELEMENT_SET_NO><REV_AT_EPOCH>24995</REV_AT_EPOCH><BSTAR>.65257E-3</BSTAR><MEAN_MOTION_DOT>.1715E-4</MEAN_MOTION_DOT><MEAN_MOTION_DDOT>0</MEAN_MOTION_DDOT></tleParameters></data></segment></body></omm>
<omm id="CCSDS_OMM_VERS" version="2.0">
<header><CREATION_DATE/><ORIGINATOR/></header><body><segment><metadata><OBJECT_NAME>ORBCOMM FM34 [-]</OBJECT_NAME><OBJECT_ID>1999-065G</OBJECT_ID><CENTER_NAME>EARTH</CENTER_NAME><REF_FRAME>TEME</REF_FRAME><TIME_SYSTEM>UTC</TIME_SYSTEM><MEAN_ELEMENT_THEORY>SGP4</MEAN_ELEMENT_THEORY></metadata><data><meanElements><EPOCH>2023-11-05T03:20:47.888160</EPOCH><MEAN_MOTION>14.34442297</MEAN_MOTION><ECCENTRICITY>.0005514</ECCENTRICITY><INCLINATION>45.0414</INCLINATION><RA_OF_ASC_NODE>1.7631</RA_OF_ASC_NODE><ARG_OF_PERICENTER>262.0196</ARG_OF_PERICENTER><MEAN_ANOMALY>98.0026</MEAN_ANOMALY></meanElements><tleParameters><EPHEMERIS_TYPE>0</EPHEMERIS_TYPE><CLASSIFICATION_TYPE>U</CLASSIFICATION_TYPE><NORAD_CAT_ID>25986</NORAD_CAT_ID><ELEMENT_SET_NO>999</ELEMENT_SET_NO><REV_AT_EPOCH>25014</REV_AT_EPOCH><BSTAR>.68019E-3</BSTAR><MEAN_MOTION_DOT>.1792E-4</MEAN_MOTION_DOT><MEAN_MOTION_DDOT>0</MEAN_MOTION_DDOT></tleParameters></data></segment></body></omm>
<omm id="CCSDS_OMM_VERS" version="2.0">
<header><CREATION_DATE/><ORIGINATOR/></header><body><segment><metadata><OBJECT_NAME>ORBCOMM FM38 [-]</OBJECT_NAME><OBJECT_ID>2008-031A</OBJECT_ID><CENTER_NAME>EARTH</CENTER_NAME><REF_FRAME>TEME</REF_FRAME><TIME_SYSTEM>UTC</TIME_SYSTEM><MEAN_ELEMENT_THEORY>SGP4</MEAN_ELEMENT_THEORY></metadata><data><meanElements><EPOCH>2023-11-05T02:15:39.065760</EPOCH><MEAN_MOTION>14.76335220</MEAN_MOTION><ECCENTRICITY>.0005432</ECCENTRICITY><INCLINATION>48.4408</INCLINATION><RA_OF_ASC_NODE>235.6966</RA_OF_ASC_NODE><ARG_OF_PERICENTER>29.9192</ARG_OF_PERICENTER><MEAN_ANOMALY>330.2031</MEAN_ANOMALY></meanElements><tleParameters><EPHEMERIS_TYPE>0</EPHEMERIS_TYPE><CLASSIFICATION_TYPE>U</CLASSIFICATION_TYPE><NORAD_CAT_ID>33060</NORAD_CAT_ID><ELEMENT_SET_NO>999</ELEMENT_SET_NO><REV_AT_EPOCH>82741</REV_AT_EPOCH><BSTAR>.59815E-3</BSTAR><MEAN_MOTION_DOT>.3991E-4</MEAN_MOTION_DOT><MEAN_MOTION_DDOT>0</MEAN_MOTION_DDOT></tleParameters></data></segment></body></omm>
<omm id="CCSDS_OMM_VERS" version="2.0">
<header><CREATION_DATE/><ORIGINATOR/></header><body><segment><metadata><OBJECT_NAME>ORBCOMM FM41 [-]</OBJECT_NAME><OBJECT_ID>2008-031B</OBJECT_ID><CENTER_NAME>EARTH</CENTER_NAME><REF_FRAME>TEME</REF_FRAME><TIME_SYSTEM>UTC</TIME_SYSTEM><MEAN_ELEMENT_THEORY>SGP4</MEAN_ELEMENT_THEORY></metadata><data><meanElements><EPOCH>2023-11-04T22:12:15.780096</EPOCH><MEAN_MOTION>14.76095951</MEAN_MOTION><ECCENTRICITY>.0004659</ECCENTRICITY><INCLINATION>48.4444</INCLINATION><RA_OF_ASC_NODE>242.6939</RA_OF_ASC_NODE><ARG_OF_PERICENTER>14.1165</ARG_OF_PERICENTER><MEAN_ANOMALY>98.5993</MEAN_ANOMALY></meanElements><tleParameters><EPHEMERIS_TYPE>0</EPHEMERIS_TYPE><CLASSIFICATION_TYPE>U</CLASSIFICATION_TYPE><NORAD_CAT_ID>33061</NORAD_CAT_ID><ELEMENT_SET_NO>999</ELEMENT_SET_NO><REV_AT_EPOCH>82690</REV_AT_EPOCH><BSTAR>.60403E-3</BSTAR><MEAN_MOTION_DOT>.4009E-4</MEAN_MOTION_DOT><MEAN_MOTION_DDOT>0</MEAN_MOTION_DDOT></tleParameters></data></segment></body></omm>
<omm id="CCSDS_OMM_VERS" version="2.0">
<header><CREATION_DATE/><ORIGINATOR/></header><body><segment><metadata><OBJECT_NAME>ORBCOMM FM29 [-]</OBJECT_NAME><OBJECT_ID>2008-031C</OBJECT_ID><CENTER_NAME>EARTH</CENTER_NAME><REF_FRAME>TEME</REF_FRAME><TIME_SYSTEM>UTC</TIME_SYSTEM><MEAN_ELEMENT_THEORY>SGP4</MEAN_ELEMENT_THEORY></metadata><data><meanElements><EPOCH>2023-11-04T13:46:36.164352</EPOCH><MEAN_MOTION>14.75974870</MEAN_MOTION><ECCENTRICITY>.0006613</ECCENTRICITY><INCLINATION>48.4397</INCLINATION><RA_OF_ASC_NODE>252.3424</RA_OF_ASC_NODE><ARG_OF_PERICENTER>11.5532</ARG_OF_PERICENTER><MEAN_ANOMALY>158.2592</MEAN_ANOMALY></meanElements><tleParameters><EPHEMERIS_TYPE>0</EPHEMERIS_TYPE><CLASSIFICATION_TYPE>U</CLASSIFICATION_TYPE><NORAD_CAT_ID>33062</NORAD_CAT_ID><ELEMENT_SET_NO>999</ELEMENT_SET_NO><REV_AT_EPOCH>82715</REV_AT_EPOCH><BSTAR>.51917E-3</BSTAR><MEAN_MOTION_DOT>.3407E-4</MEAN_MOTION_DOT><MEAN_MOTION_DDOT>0</MEAN_MOTION_DDOT></tleParameters></data></segment></body></omm>
<omm id="CCSDS_OMM_VERS" version="2.0">
<header><CREATION_DATE/><ORIGINATOR/></header><body><segment><metadata><OBJECT_NAME>ORBCOMM FM39 [-]</OBJECT_NAME><OBJECT_ID>2008-031D</OBJECT_ID><CENTER_NAME>EARTH</CENTER_NAME><REF_FRAME>TEME</REF_FRAME><TIME_SYSTEM>UTC</TIME_SYSTEM><MEAN_ELEMENT_THEORY>SGP4</MEAN_ELEMENT_THEORY></metadata><data><meanElements><EPOCH>2023-11-04T07:44:32.916480</EPOCH><MEAN_MOTION>14.75116170</MEAN_MOTION><ECCENTRICITY>.0007765</ECCENTRICITY><INCLINATION>48.4413</INCLINATION><RA_OF_ASC_NODE>272.7371</RA_OF_ASC_NODE><ARG_OF_PERICENTER>347.2573</ARG_OF_PERICENTER><MEAN_ANOMALY>12.8143</MEAN_ANOMALY></meanElements><tleParameters><EPHEMERIS_TYPE>0</EPHEMERIS_TYPE><CLASSIFICATION_TYPE>U</CLASSIFICATION_TYPE><NORAD_CAT_ID>33063</NORAD_CAT_ID><ELEMENT_SET_NO>999</ELEMENT_SET_NO><REV_AT_EPOCH>82644</REV_AT_EPOCH><BSTAR>.5043E-3</BSTAR><MEAN_MOTION_DOT>.3235E-4</MEAN_MOTION_DOT><MEAN_MOTION_DDOT>0</MEAN_MOTION_DDOT></tleParameters></data></segment></body></omm>

</ndm>
