ORBCOMM FM33 [-]        
1 25983U 99065D   23308.94987692  .00002334  00000+0  82807-3 0  9995
2 25983  45.0291 277.7726 0010238 329.0632 128.4303 14.36933892251161
ORBCOMM FM36 [-]        
1 25984U 99065E   23308.83135219  .00002498  00000+0  92146-3 0  9992
2 25984  45.0413   0.6001 0005261 229.5959 130.4430 14.34806603249543
ORBCOMM FM35 [+]        
1 25985U 99065F   23308.89600668  .00001715  00000+0  65257-3 0  9998
2 25985  45.0419   2.4287 0003992 297.5368  62.5073 14.34490975249958
ORBCOMM FM34 [-]        
1 25986U 99065G   23309.13944315  .00001792  00000+0  68019-3 0  9991
2 25986  45.0414   1.7631 0005514 262.0196  98.0026 14.34442297250146
ORBCOMM FM38 [-]        
1 33060U 08031A   23309.09420215  .00003991  00000+0  59815-3 0  9996
2 33060  48.4408 235.6966 0005432  29.9192 330.2031 14.76335220827412
ORBCOMM FM41 [-]        
1 33061U 08031B   23308.92518264  .00004009  00000+0  60403-3 0  9996
2 33061  48.4444 242.6939 0004659  14.1165  98.5993 14.76095951826905
ORBCOMM FM29 [-]        
1 33062U 08031C   23308.57402968  .00003407  00000+0  51917-3 0  9992
2 33062  48.4397 252.3424 0006613  11.5532 158.2592 14.75974870827153
ORBCOMM FM39 [-]        
1 33063U 08031D   23308.32260320  .00003235  00000+0  50430-3 0  9998
2 33063  48.4413 272.7371 0007765 347.2573  12.8143 14.75116170826442
